[{"OBJECT_NAME":"STARLINK-31977","OBJECT_ID":"2024-100H","EPOCH":"2026-03-09T10:46:13.283904","MEAN_MOTION":15.27561329,"ECCENTRICITY":8.313e-5,"INCLINATION":42.9997,"RA_OF_ASC_NODE":119.5264,"ARG_OF_PERICENTER":250.3237,"MEAN_ANOMALY":109.7525,"EPHEMERIS_TYPE":0,"CLASSIFICATION_TYPE":"U","NORAD_CAT_ID":59892,"ELEMENT_SET_NO":999,"REV_AT_EPOCH":10120,"BSTAR":-4.352118e-6,"MEAN_MOTION_DOT":-3.81e-6,"MEAN_MOTION_DDOT":0},{"OBJECT_NAME":"CZ-6A DEB","OBJECT_ID":"2022-151DE","EPOCH":"2026-03-09T09:45:43.657920","MEAN_MOTION":15.34292219,"ECCENTRICITY":0.00393756,"INCLINATION":99.0022,"RA_OF_ASC_NODE":218.5596,"ARG_OF_PERICENTER":192.6197,"MEAN_ANOMALY":167.4059,"EPHEMERIS_TYPE":0,"CLASSIFICATION_TYPE":"U","NORAD_CAT_ID":54359,"ELEMENT_SET_NO":999,"REV_AT_EPOCH":10560,"BSTAR":0.0065240017,"MEAN_MOTION_DOT":0.00228186,"MEAN_MOTION_DDOT":0}]
